[{"OBJECT_NAME":"STARLINK-31411","OBJECT_ID":"2024-045E","EPOCH":"2026-03-09T02:15:34.859808","MEAN_MOTION":15.27572093,"ECCENTRICITY":0.00010324,"INCLINATION":43.001,"RA_OF_ASC_NODE":95.6172,"ARG_OF_PERICENTER":269.951,"MEAN_ANOMALY":90.1224,"EPHEMERIS_TYPE":0,"CLASSIFICATION_TYPE":"U","NORAD_CAT_ID":59182,"ELEMENT_SET_NO":999,"REV_AT_EPOCH":11307,"BSTAR":4.640556e-6,"MEAN_MOTION_DOT":-1.34e-6,"MEAN_MOTION_DDOT":0},{"OBJECT_NAME":"SL-24 DEB","OBJECT_ID":"2013-066AL","EPOCH":"2026-03-09T22:28:39.180576","MEAN_MOTION":15.26992446,"ECCENTRICITY":0.00036318,"INCLINATION":97.3978,"RA_OF_ASC_NODE":75.9402,"ARG_OF_PERICENTER":273.216,"MEAN_ANOMALY":86.8663,"EPHEMERIS_TYPE":0,"CLASSIFICATION_TYPE":"U","NORAD_CAT_ID":39450,"ELEMENT_SET_NO":999,"REV_AT_EPOCH":67244,"BSTAR":0.00070559472,"MEAN_MOTION_DOT":0.00018651,"MEAN_MOTION_DDOT":0}]
